{
  "norad_id": 51884,
  "name": "STARLINK-3577",
  "history": [
    {
      "epoch": "2026-03-28T22:05:42.297216",
      "apogee_km": 540.7867605561914,
      "perigee_km": 538.6256263425576,
      "latitude_deg": 28.09630557610178,
      "longitude_deg": 176.78033023979515,
      "semi_major_axis_km": 6917.843193449375,
      "eccentricity": 0.0001562,
      "inclination_deg": 53.2171,
      "raan_deg": 272.7899,
      "arg_perigee_deg": 89.955,
      "mean_anomaly_deg": 270.1621,
      "mean_motion_rev_day": 15.08852169
    }
  ]
}